{"type":"Feature","properties":{"name":"Variante Monte Incudine","osm_relation":1771390,"source":"© les contributeurs OpenStreetMap (ODbL), assemblage via Waymarked Trails + Overpass","length_m":9635,"n_points":513,"fetched_at":"2026-07-23","gaps":[]},"geometry":{"type":"LineString","coordinates":[[9.177094,41.905766],[9.177191,41.905673],[9.177277,41.905626],[9.177455,41.905669],[9.17771,41.90577],[9.178,41.90573],[9.178071,41.905558],[9.178146,41.905425],[9.178253,41.905237],[9.178391,41.905108],[9.17834,41.904795],[9.178508,41.904487],[9.178966,41.904317],[9.179171,41.904133],[9.179432,41.904015],[9.179523,41.903759],[9.179655,41.903674],[9.17997,41.903472],[9.180344,41.903332],[9.180813,41.903044],[9.181056,41.902847],[9.181347,41.902621],[9.181662,41.902496],[9.182006,41.902407],[9.182245,41.902264],[9.182422,41.902006],[9.182443,41.901697],[9.182251,41.901147],[9.182223,41.900894],[9.182251,41.900673],[9.182274,41.900526],[9.182214,41.900407],[9.181954,41.900065],[9.181423,41.899204],[9.180954,41.898687],[9.180497,41.898427],[9.179839,41.89818],[9.179555,41.898186],[9.179404,41.898175],[9.17913,41.898012],[9.178953,41.897852],[9.178818,41.897557],[9.178665,41.897424],[9.178576,41.897364],[9.178526,41.897293],[9.178503,41.89719],[9.178505,41.897054],[9.178888,41.89683],[9.178972,41.896651],[9.178981,41.896435],[9.178919,41.896259],[9.178817,41.895969],[9.178836,41.895686],[9.179099,41.895415],[9.179138,41.895194],[9.179228,41.894965],[9.179268,41.894862],[9.179402,41.894747],[9.179353,41.894317],[9.179567,41.893809],[9.179621,41.893542],[9.179811,41.893346],[9.179841,41.893136],[9.179728,41.892962],[9.179675,41.892725],[9.180077,41.892449],[9.180356,41.892227],[9.180569,41.891951],[9.180771,41.891855],[9.180961,41.891514],[9.181262,41.891224],[9.181538,41.891092],[9.181662,41.890886],[9.18162,41.890718],[9.181605,41.890565],[9.181541,41.890473],[9.181455,41.889956],[9.181254,41.889328],[9.181061,41.888972],[9.18086,41.888812],[9.180699,41.888567],[9.180608,41.888268],[9.180701,41.888051],[9.1806,41.887831],[9.180454,41.887656],[9.180518,41.887464],[9.180844,41.886884],[9.180979,41.886517],[9.180969,41.886063],[9.180788,41.885609],[9.180694,41.885142],[9.180519,41.884713],[9.180235,41.884192],[9.18014,41.883838],[9.180162,41.883272],[9.180184,41.882244],[9.180342,41.881999],[9.180445,41.881364],[9.180403,41.880801],[9.180451,41.880669],[9.180453,41.880567],[9.180526,41.880447],[9.180485,41.880348],[9.180523,41.880263],[9.180566,41.88014],[9.180501,41.879905],[9.180458,41.879803],[9.180484,41.879533],[9.180622,41.879396],[9.180721,41.879202],[9.180758,41.879103],[9.180802,41.878959],[9.180846,41.878747],[9.18119,41.878363],[9.181213,41.878191],[9.181069,41.877889],[9.181116,41.877587],[9.181064,41.877461],[9.180967,41.877344],[9.180814,41.877123],[9.180896,41.876917],[9.180895,41.876689],[9.181216,41.876455],[9.181428,41.876343],[9.181642,41.876172],[9.181787,41.876182],[9.181916,41.876122],[9.181994,41.876012],[9.182099,41.875905],[9.182219,41.875831],[9.182284,41.875639],[9.18241,41.875508],[9.182524,41.875429],[9.182635,41.875377],[9.182737,41.87531],[9.18286,41.875197],[9.182926,41.87509],[9.182942,41.874992],[9.183033,41.874929],[9.183104,41.874819],[9.183085,41.874697],[9.183197,41.874599],[9.183452,41.874482],[9.183561,41.874393],[9.183664,41.874232],[9.183858,41.874057],[9.184072,41.873913],[9.18415,41.873861],[9.184177,41.873781],[9.184218,41.873596],[9.184285,41.873418],[9.184285,41.873269],[9.184291,41.873086],[9.184375,41.872788],[9.184468,41.872502],[9.184581,41.872199],[9.184709,41.872122],[9.184936,41.872113],[9.18535,41.872038],[9.185496,41.871998],[9.185618,41.871946],[9.185775,41.871894],[9.18593,41.871727],[9.18626,41.871316],[9.186345,41.871149],[9.186408,41.871158],[9.186483,41.871197],[9.186592,41.871245],[9.186697,41.871314],[9.186715,41.87142],[9.186831,41.871602],[9.186868,41.871725],[9.186917,41.8718],[9.187095,41.871969],[9.187273,41.872177],[9.187523,41.872357],[9.187732,41.872458],[9.187936,41.872473],[9.188151,41.872385],[9.188323,41.872352],[9.188446,41.872304],[9.18859,41.872182],[9.188718,41.871933],[9.188839,41.87186],[9.188954,41.871819],[9.189151,41.871868],[9.189254,41.871849],[9.189308,41.871703],[9.189334,41.871653],[9.189406,41.871647],[9.189493,41.871671],[9.189571,41.871625],[9.189749,41.871645],[9.18986,41.87163],[9.190006,41.871559],[9.190068,41.871477],[9.190055,41.871381],[9.189991,41.871252],[9.190001,41.871202],[9.19016,41.871143],[9.190235,41.871032],[9.190238,41.870965],[9.190227,41.870896],[9.190288,41.87075],[9.190267,41.870593],[9.190306,41.870516],[9.190376,41.870433],[9.190392,41.870368],[9.190376,41.870256],[9.190298,41.869992],[9.190354,41.869841],[9.190518,41.869763],[9.190684,41.869674],[9.190786,41.869639],[9.190862,41.86967],[9.190922,41.869667],[9.190953,41.869594],[9.191022,41.869517],[9.19102,41.869469],[9.191024,41.869432],[9.191075,41.869393],[9.191115,41.869398],[9.191244,41.869293],[9.191337,41.869272],[9.19141,41.869274],[9.191493,41.869331],[9.19158,41.869357],[9.191701,41.869343],[9.192018,41.869229],[9.192259,41.869219],[9.192551,41.869082],[9.192759,41.869001],[9.192881,41.868961],[9.192982,41.868831],[9.193041,41.868774],[9.193131,41.868741],[9.193212,41.868701],[9.193317,41.868666],[9.193411,41.868597],[9.193505,41.868513],[9.193585,41.868454],[9.193684,41.868427],[9.193815,41.868382],[9.193967,41.868225],[9.194114,41.868109],[9.194315,41.867973],[9.194409,41.867926],[9.194576,41.867882],[9.194719,41.867739],[9.194791,41.867629],[9.194807,41.8675],[9.194852,41.86748],[9.194928,41.867463],[9.195103,41.867308],[9.195295,41.867178],[9.195478,41.867017],[9.195731,41.866914],[9.195809,41.866917],[9.195829,41.866892],[9.195806,41.866858],[9.195818,41.86683],[9.19588,41.866804],[9.195971,41.866713],[9.196135,41.866748],[9.196183,41.866771],[9.196234,41.86676],[9.196278,41.866715],[9.196514,41.866666],[9.19665,41.866649],[9.196796,41.866608],[9.197013,41.866634],[9.197242,41.866633],[9.19754,41.866637],[9.197754,41.866605],[9.197924,41.866539],[9.198107,41.866484],[9.198154,41.866501],[9.198194,41.86651],[9.198213,41.866494],[9.198239,41.866456],[9.198297,41.866419],[9.198464,41.866391],[9.198562,41.866387],[9.198785,41.866404],[9.198921,41.866394],[9.199324,41.866548],[9.199568,41.866584],[9.199706,41.866567],[9.199864,41.866615],[9.200016,41.866652],[9.200138,41.866664],[9.200362,41.86658],[9.200473,41.866571],[9.200668,41.866591],[9.200779,41.866633],[9.201556,41.866879],[9.202382,41.86697],[9.202524,41.866962],[9.202634,41.866936],[9.203171,41.86669],[9.203587,41.86654],[9.20403,41.866426],[9.204145,41.86644],[9.204255,41.866392],[9.204391,41.866395],[9.204607,41.866328],[9.204742,41.866306],[9.204818,41.86633],[9.204902,41.866324],[9.204982,41.866267],[9.205257,41.866269],[9.205651,41.866281],[9.205921,41.866242],[9.206098,41.866189],[9.206226,41.866102],[9.206462,41.866055],[9.206645,41.866027],[9.206849,41.865921],[9.207216,41.865628],[9.207431,41.86547],[9.207488,41.865415],[9.207505,41.865354],[9.207504,41.865306],[9.207495,41.865262],[9.207392,41.865057],[9.207254,41.864876],[9.207132,41.86468],[9.207032,41.864488],[9.206965,41.864223],[9.206818,41.863989],[9.206778,41.863929],[9.206644,41.863873],[9.206415,41.863786],[9.206326,41.863757],[9.206281,41.863703],[9.206157,41.863626],[9.206156,41.863592],[9.206055,41.863593],[9.20604,41.863557],[9.205951,41.863562],[9.205876,41.863508],[9.205757,41.863489],[9.205682,41.863438],[9.205642,41.863405],[9.20558,41.863363],[9.205604,41.863305],[9.205566,41.863233],[9.205364,41.863064],[9.205324,41.862969],[9.205226,41.862918],[9.205179,41.862737],[9.205135,41.862597],[9.205043,41.862495],[9.204966,41.86231],[9.204891,41.862268],[9.204859,41.862108],[9.204833,41.862017],[9.204738,41.861944],[9.204742,41.861869],[9.204828,41.861584],[9.204849,41.861392],[9.204692,41.861171],[9.204575,41.861099],[9.204531,41.861033],[9.204374,41.860815],[9.203929,41.860655],[9.203701,41.860538],[9.203584,41.860434],[9.20354,41.86037],[9.203465,41.860315],[9.203429,41.860272],[9.203415,41.860189],[9.203342,41.860122],[9.203336,41.859996],[9.203291,41.859875],[9.203276,41.859674],[9.203304,41.85952],[9.203274,41.859357],[9.203334,41.85911],[9.203242,41.85902],[9.20319,41.858834],[9.203142,41.858655],[9.203096,41.858573],[9.20309,41.858412],[9.203039,41.858096],[9.203037,41.858019],[9.203094,41.85788],[9.2031,41.857798],[9.203131,41.857745],[9.203194,41.857698],[9.203359,41.857671],[9.203433,41.857637],[9.203894,41.857319],[9.204373,41.857025],[9.204408,41.856919],[9.204443,41.85688],[9.20461,41.856803],[9.204641,41.856684],[9.204778,41.856515],[9.204838,41.856491],[9.204892,41.856443],[9.205129,41.856158],[9.205209,41.856103],[9.205288,41.856018],[9.20542,41.855933],[9.205765,41.855727],[9.205792,41.855704],[9.20583,41.85569],[9.205868,41.855661],[9.205923,41.855529],[9.205951,41.855448],[9.205946,41.855374],[9.20591,41.855218],[9.205915,41.855089],[9.205959,41.854891],[9.206026,41.854783],[9.206121,41.854692],[9.206475,41.854438],[9.206619,41.854415],[9.206708,41.854372],[9.206767,41.854269],[9.20675,41.854226],[9.206743,41.854193],[9.206862,41.854046],[9.20698,41.853929],[9.207007,41.853915],[9.207067,41.853938],[9.207184,41.853834],[9.2072,41.853779],[9.207307,41.853278],[9.207273,41.853126],[9.207286,41.853108],[9.207337,41.852957],[9.207396,41.852853],[9.207441,41.852677],[9.207479,41.852595],[9.207536,41.852552],[9.207523,41.852465],[9.207505,41.852299],[9.207487,41.852271],[9.207557,41.852224],[9.207551,41.852198],[9.207551,41.852171],[9.20756,41.852158],[9.207587,41.852159],[9.207653,41.85221],[9.207688,41.852217],[9.207711,41.852168],[9.207737,41.852196],[9.207808,41.852118],[9.20786,41.85205],[9.20787,41.851973],[9.207818,41.851926],[9.207839,41.851905],[9.207845,41.851801],[9.207874,41.851636],[9.207861,41.851552],[9.207773,41.851433],[9.207702,41.851284],[9.207673,41.851096],[9.207675,41.851026],[9.207697,41.850979],[9.207651,41.85091],[9.207639,41.850844],[9.207594,41.850578],[9.207531,41.850496],[9.207539,41.850454],[9.207585,41.850395],[9.207536,41.850341],[9.207555,41.850266],[9.207497,41.85014],[9.20745,41.850018],[9.207412,41.849905],[9.207374,41.849825],[9.207326,41.849711],[9.207106,41.849522],[9.207018,41.84943],[9.206904,41.849391],[9.206838,41.849347],[9.206779,41.849337],[9.206724,41.849392],[9.206681,41.849365],[9.206639,41.849291],[9.206525,41.849225],[9.206426,41.849101],[9.206391,41.849056],[9.206319,41.849044],[9.206312,41.848978],[9.206202,41.848868],[9.206047,41.84885],[9.205835,41.84869],[9.205712,41.848465],[9.20553,41.848402],[9.205428,41.848249],[9.205293,41.848185],[9.205225,41.84809],[9.205151,41.848026],[9.205094,41.847966],[9.205037,41.847884],[9.204949,41.847798],[9.204725,41.84764],[9.204568,41.847525],[9.204396,41.847288],[9.204266,41.847285],[9.204189,41.847237],[9.204077,41.847259],[9.203961,41.847199],[9.203879,41.847037],[9.203776,41.846771],[9.203727,41.846606],[9.203784,41.8464],[9.203736,41.846131],[9.203659,41.846003]]}}