{"type":"Feature","properties":{"name":"Variante Monte Incudine","osm_relation":1771390,"source":"© les contributeurs OpenStreetMap (ODbL), assemblage via Waymarked Trails + Overpass","length_m":9635,"n_points":513,"fetched_at":"2026-07-23","gaps":[],"elevation_source":"IGN RGE ALTI (Géoplateforme, licence Etalab 2.0)","ele_min":1429.1,"ele_max":2130.2},"geometry":{"type":"LineString","coordinates":[[9.177094,41.905766,1570.5],[9.177191,41.905673,1570],[9.177277,41.905626,1570.6],[9.177455,41.905669,1569.8],[9.17771,41.90577,1567.6],[9.178,41.90573,1566.4],[9.178071,41.905558,1567.4],[9.178146,41.905425,1567.3],[9.178253,41.905237,1568.2],[9.178391,41.905108,1569.5],[9.17834,41.904795,1573],[9.178508,41.904487,1575.5],[9.178966,41.904317,1580.5],[9.179171,41.904133,1586.2],[9.179432,41.904015,1589.5],[9.179523,41.903759,1591.7],[9.179655,41.903674,1592.3],[9.17997,41.903472,1595],[9.180344,41.903332,1599],[9.180813,41.903044,1602.5],[9.181056,41.902847,1604.8],[9.181347,41.902621,1605.4],[9.181662,41.902496,1605.7],[9.182006,41.902407,1604.7],[9.182245,41.902264,1601.7],[9.182422,41.902006,1597.4],[9.182443,41.901697,1596.9],[9.182251,41.901147,1598.4],[9.182223,41.900894,1598.1],[9.182251,41.900673,1600],[9.182274,41.900526,1600.4],[9.182214,41.900407,1599.4],[9.181954,41.900065,1596],[9.181423,41.899204,1583.3],[9.180954,41.898687,1572.7],[9.180497,41.898427,1569.1],[9.179839,41.89818,1570.3],[9.179555,41.898186,1569.5],[9.179404,41.898175,1569],[9.17913,41.898012,1565.5],[9.178953,41.897852,1562.3],[9.178818,41.897557,1558.4],[9.178665,41.897424,1558],[9.178576,41.897364,1557.6],[9.178526,41.897293,1557.1],[9.178503,41.89719,1556.4],[9.178505,41.897054,1555.7],[9.178888,41.89683,1556.5],[9.178972,41.896651,1556.7],[9.178981,41.896435,1557.1],[9.178919,41.896259,1557.9],[9.178817,41.895969,1556.6],[9.178836,41.895686,1553.9],[9.179099,41.895415,1547.6],[9.179138,41.895194,1546.2],[9.179228,41.894965,1544.6],[9.179268,41.894862,1542.8],[9.179402,41.894747,1537.6],[9.179353,41.894317,1526.8],[9.179567,41.893809,1511.7],[9.179621,41.893542,1505.6],[9.179811,41.893346,1502.3],[9.179841,41.893136,1500.4],[9.179728,41.892962,1498.1],[9.179675,41.892725,1493.9],[9.180077,41.892449,1486.1],[9.180356,41.892227,1484.2],[9.180569,41.891951,1482.5],[9.180771,41.891855,1481.9],[9.180961,41.891514,1480.7],[9.181262,41.891224,1477],[9.181538,41.891092,1476.1],[9.181662,41.890886,1474.4],[9.18162,41.890718,1475.2],[9.181605,41.890565,1477.9],[9.181541,41.890473,1479.2],[9.181455,41.889956,1476.9],[9.181254,41.889328,1484.8],[9.181061,41.888972,1480.1],[9.18086,41.888812,1476.4],[9.180699,41.888567,1471.3],[9.180608,41.888268,1474.5],[9.180701,41.888051,1477.8],[9.1806,41.887831,1479],[9.180454,41.887656,1477.8],[9.180518,41.887464,1476.6],[9.180844,41.886884,1474.9],[9.180979,41.886517,1470.4],[9.180969,41.886063,1465.3],[9.180788,41.885609,1463.9],[9.180694,41.885142,1461.7],[9.180519,41.884713,1459.3],[9.180235,41.884192,1458.7],[9.18014,41.883838,1457.9],[9.180162,41.883272,1451],[9.180184,41.882244,1439.5],[9.180342,41.881999,1442.1],[9.180445,41.881364,1437.5],[9.180403,41.880801,1430.4],[9.180451,41.880669,1429.1],[9.180453,41.880567,1431.4],[9.180526,41.880447,1434.4],[9.180485,41.880348,1437.1],[9.180523,41.880263,1439.8],[9.180566,41.88014,1443],[9.180501,41.879905,1446.8],[9.180458,41.879803,1448.4],[9.180484,41.879533,1452.8],[9.180622,41.879396,1456.4],[9.180721,41.879202,1461.8],[9.180758,41.879103,1464.9],[9.180802,41.878959,1467],[9.180846,41.878747,1469.2],[9.18119,41.878363,1472.5],[9.181213,41.878191,1472.7],[9.181069,41.877889,1470.9],[9.181116,41.877587,1471],[9.181064,41.877461,1469.9],[9.180967,41.877344,1468.6],[9.180814,41.877123,1464.7],[9.180896,41.876917,1462],[9.180895,41.876689,1459.6],[9.181216,41.876455,1458.4],[9.181428,41.876343,1456.3],[9.181642,41.876172,1452.6],[9.181787,41.876182,1450],[9.181916,41.876122,1447.8],[9.181994,41.876012,1447.2],[9.182099,41.875905,1449.9],[9.182219,41.875831,1452.4],[9.182284,41.875639,1453.4],[9.18241,41.875508,1453.3],[9.182524,41.875429,1455],[9.182635,41.875377,1455.5],[9.182737,41.87531,1456.6],[9.18286,41.875197,1458],[9.182926,41.87509,1459.2],[9.182942,41.874992,1460.6],[9.183033,41.874929,1463.1],[9.183104,41.874819,1465.2],[9.183085,41.874697,1467.7],[9.183197,41.874599,1469.9],[9.183452,41.874482,1468.6],[9.183561,41.874393,1467.6],[9.183664,41.874232,1466],[9.183858,41.874057,1460.9],[9.184072,41.873913,1455.3],[9.18415,41.873861,1453.2],[9.184177,41.873781,1453.2],[9.184218,41.873596,1452.4],[9.184285,41.873418,1451],[9.184285,41.873269,1450],[9.184291,41.873086,1449.4],[9.184375,41.872788,1447],[9.184468,41.872502,1444.3],[9.184581,41.872199,1442.4],[9.184709,41.872122,1441.3],[9.184936,41.872113,1440.2],[9.18535,41.872038,1439.4],[9.185496,41.871998,1437.6],[9.185618,41.871946,1435.8],[9.185775,41.871894,1433.1],[9.18593,41.871727,1431.5],[9.18626,41.871316,1431],[9.186345,41.871149,1431.6],[9.186408,41.871158,1431.3],[9.186483,41.871197,1430.4],[9.186592,41.871245,1430.3],[9.186697,41.871314,1432],[9.186715,41.87142,1432.8],[9.186831,41.871602,1434.3],[9.186868,41.871725,1434.3],[9.186917,41.8718,1434.1],[9.187095,41.871969,1435],[9.187273,41.872177,1437.5],[9.187523,41.872357,1441.5],[9.187732,41.872458,1445.8],[9.187936,41.872473,1450.6],[9.188151,41.872385,1455.7],[9.188323,41.872352,1459.2],[9.188446,41.872304,1462.3],[9.18859,41.872182,1465.2],[9.188718,41.871933,1469.9],[9.188839,41.87186,1473],[9.188954,41.871819,1476.5],[9.189151,41.871868,1479.7],[9.189254,41.871849,1484.6],[9.189308,41.871703,1490.3],[9.189334,41.871653,1493.3],[9.189406,41.871647,1494.6],[9.189493,41.871671,1497.3],[9.189571,41.871625,1501.1],[9.189749,41.871645,1503.9],[9.18986,41.87163,1507.5],[9.190006,41.871559,1510.5],[9.190068,41.871477,1513.6],[9.190055,41.871381,1516.2],[9.189991,41.871252,1518.3],[9.190001,41.871202,1519.2],[9.19016,41.871143,1521.6],[9.190235,41.871032,1523.8],[9.190238,41.870965,1524.7],[9.190227,41.870896,1526.1],[9.190288,41.87075,1528.3],[9.190267,41.870593,1531.5],[9.190306,41.870516,1533.6],[9.190376,41.870433,1536.3],[9.190392,41.870368,1537.5],[9.190376,41.870256,1540.5],[9.190298,41.869992,1545.8],[9.190354,41.869841,1548.7],[9.190518,41.869763,1552.1],[9.190684,41.869674,1556.4],[9.190786,41.869639,1558.4],[9.190862,41.86967,1559.5],[9.190922,41.869667,1561.1],[9.190953,41.869594,1561.3],[9.191022,41.869517,1562.9],[9.19102,41.869469,1563],[9.191024,41.869432,1563],[9.191075,41.869393,1563.7],[9.191115,41.869398,1564.3],[9.191244,41.869293,1566.7],[9.191337,41.869272,1568.5],[9.19141,41.869274,1570.5],[9.191493,41.869331,1572.9],[9.19158,41.869357,1575.2],[9.191701,41.869343,1578.6],[9.192018,41.869229,1582.9],[9.192259,41.869219,1585.4],[9.192551,41.869082,1590.4],[9.192759,41.869001,1593.9],[9.192881,41.868961,1596.8],[9.192982,41.868831,1600.4],[9.193041,41.868774,1600.9],[9.193131,41.868741,1601.4],[9.193212,41.868701,1601.9],[9.193317,41.868666,1602.1],[9.193411,41.868597,1602.5],[9.193505,41.868513,1603.1],[9.193585,41.868454,1604.2],[9.193684,41.868427,1605.4],[9.193815,41.868382,1606.7],[9.193967,41.868225,1607.9],[9.194114,41.868109,1610.5],[9.194315,41.867973,1613.3],[9.194409,41.867926,1614.5],[9.194576,41.867882,1615.4],[9.194719,41.867739,1616.2],[9.194791,41.867629,1617],[9.194807,41.8675,1617.6],[9.194852,41.86748,1617.1],[9.194928,41.867463,1616.8],[9.195103,41.867308,1616.4],[9.195295,41.867178,1617.6],[9.195478,41.867017,1619.7],[9.195731,41.866914,1622.5],[9.195809,41.866917,1622.7],[9.195829,41.866892,1622.8],[9.195806,41.866858,1623.2],[9.195818,41.86683,1623.8],[9.19588,41.866804,1624],[9.195971,41.866713,1625.3],[9.196135,41.866748,1626.4],[9.196183,41.866771,1626.2],[9.196234,41.86676,1626.6],[9.196278,41.866715,1627.8],[9.196514,41.866666,1632.5],[9.19665,41.866649,1635.6],[9.196796,41.866608,1639.5],[9.197013,41.866634,1642],[9.197242,41.866633,1646.4],[9.19754,41.866637,1652.5],[9.197754,41.866605,1657.7],[9.197924,41.866539,1662.2],[9.198107,41.866484,1667.6],[9.198154,41.866501,1667.7],[9.198194,41.86651,1668.8],[9.198213,41.866494,1668.8],[9.198239,41.866456,1670.5],[9.198297,41.866419,1672.2],[9.198464,41.866391,1677.8],[9.198562,41.866387,1681.3],[9.198785,41.866404,1686.1],[9.198921,41.866394,1688.3],[9.199324,41.866548,1694.5],[9.199568,41.866584,1699.2],[9.199706,41.866567,1702.2],[9.199864,41.866615,1705.9],[9.200016,41.866652,1708.5],[9.200138,41.866664,1711.2],[9.200362,41.86658,1716],[9.200473,41.866571,1719],[9.200668,41.866591,1723.1],[9.200779,41.866633,1724.5],[9.201556,41.866879,1737.2],[9.202382,41.86697,1749.2],[9.202524,41.866962,1753.3],[9.202634,41.866936,1754],[9.203171,41.86669,1763.6],[9.203587,41.86654,1767.5],[9.20403,41.866426,1772.2],[9.204145,41.86644,1773],[9.204255,41.866392,1774.7],[9.204391,41.866395,1775],[9.204607,41.866328,1775.8],[9.204742,41.866306,1776.8],[9.204818,41.86633,1776.1],[9.204902,41.866324,1777],[9.204982,41.866267,1779.5],[9.205257,41.866269,1783.4],[9.205651,41.866281,1785.8],[9.205921,41.866242,1788.4],[9.206098,41.866189,1790.6],[9.206226,41.866102,1792.5],[9.206462,41.866055,1795.1],[9.206645,41.866027,1796.6],[9.206849,41.865921,1800.4],[9.207216,41.865628,1807.9],[9.207431,41.86547,1812.4],[9.207488,41.865415,1815],[9.207505,41.865354,1815.9],[9.207504,41.865306,1816.8],[9.207495,41.865262,1818],[9.207392,41.865057,1823.5],[9.207254,41.864876,1828.5],[9.207132,41.86468,1835.2],[9.207032,41.864488,1840.4],[9.206965,41.864223,1849.5],[9.206818,41.863989,1859.6],[9.206778,41.863929,1861],[9.206644,41.863873,1864.5],[9.206415,41.863786,1870.7],[9.206326,41.863757,1873.5],[9.206281,41.863703,1876.7],[9.206157,41.863626,1879.4],[9.206156,41.863592,1881.4],[9.206055,41.863593,1882.9],[9.20604,41.863557,1883.9],[9.205951,41.863562,1885.7],[9.205876,41.863508,1888.6],[9.205757,41.863489,1892.2],[9.205682,41.863438,1895.2],[9.205642,41.863405,1895.2],[9.20558,41.863363,1898.3],[9.205604,41.863305,1900.3],[9.205566,41.863233,1902.3],[9.205364,41.863064,1910.9],[9.205324,41.862969,1915],[9.205226,41.862918,1916.6],[9.205179,41.862737,1920.7],[9.205135,41.862597,1923.8],[9.205043,41.862495,1927],[9.204966,41.86231,1932.7],[9.204891,41.862268,1934.9],[9.204859,41.862108,1941.5],[9.204833,41.862017,1944.6],[9.204738,41.861944,1945.7],[9.204742,41.861869,1946.1],[9.204828,41.861584,1949.5],[9.204849,41.861392,1952.5],[9.204692,41.861171,1959],[9.204575,41.861099,1960.5],[9.204531,41.861033,1962.1],[9.204374,41.860815,1962.7],[9.203929,41.860655,1964.6],[9.203701,41.860538,1965.3],[9.203584,41.860434,1969.1],[9.20354,41.86037,1970.2],[9.203465,41.860315,1970.8],[9.203429,41.860272,1971.2],[9.203415,41.860189,1972.4],[9.203342,41.860122,1971.5],[9.203336,41.859996,1971.9],[9.203291,41.859875,1970.6],[9.203276,41.859674,1969.3],[9.203304,41.85952,1972],[9.203274,41.859357,1972.2],[9.203334,41.85911,1977.5],[9.203242,41.85902,1976.2],[9.20319,41.858834,1976.4],[9.203142,41.858655,1977],[9.203096,41.858573,1976.6],[9.20309,41.858412,1978.9],[9.203039,41.858096,1981.5],[9.203037,41.858019,1981.7],[9.203094,41.85788,1982.6],[9.2031,41.857798,1982.8],[9.203131,41.857745,1983.4],[9.203194,41.857698,1983.3],[9.203359,41.857671,1982.3],[9.203433,41.857637,1981.6],[9.203894,41.857319,1982.7],[9.204373,41.857025,1985],[9.204408,41.856919,1983.9],[9.204443,41.85688,1984.5],[9.20461,41.856803,1987.2],[9.204641,41.856684,1987.8],[9.204778,41.856515,1988.9],[9.204838,41.856491,1990.9],[9.204892,41.856443,1991.7],[9.205129,41.856158,1995],[9.205209,41.856103,1993.9],[9.205288,41.856018,1994.8],[9.20542,41.855933,1997.3],[9.205765,41.855727,2000.2],[9.205792,41.855704,2000.9],[9.20583,41.85569,2001.9],[9.205868,41.855661,2002.4],[9.205923,41.855529,2003.3],[9.205951,41.855448,2004.6],[9.205946,41.855374,2005.7],[9.20591,41.855218,2008.1],[9.205915,41.855089,2011.3],[9.205959,41.854891,2014.7],[9.206026,41.854783,2015.7],[9.206121,41.854692,2019.1],[9.206475,41.854438,2024.2],[9.206619,41.854415,2025.6],[9.206708,41.854372,2027.6],[9.206767,41.854269,2030.7],[9.20675,41.854226,2030.6],[9.206743,41.854193,2031.5],[9.206862,41.854046,2035.9],[9.20698,41.853929,2040.1],[9.207007,41.853915,2040.4],[9.207067,41.853938,2041.9],[9.207184,41.853834,2044],[9.2072,41.853779,2046.1],[9.207307,41.853278,2062.6],[9.207273,41.853126,2064],[9.207286,41.853108,2064],[9.207337,41.852957,2064.6],[9.207396,41.852853,2065],[9.207441,41.852677,2065.8],[9.207479,41.852595,2068.6],[9.207536,41.852552,2071.2],[9.207523,41.852465,2072],[9.207505,41.852299,2074.8],[9.207487,41.852271,2074.1],[9.207557,41.852224,2077.6],[9.207551,41.852198,2078.4],[9.207551,41.852171,2078.4],[9.20756,41.852158,2079.1],[9.207587,41.852159,2080.5],[9.207653,41.85221,2080.1],[9.207688,41.852217,2081.3],[9.207711,41.852168,2083.4],[9.207737,41.852196,2083.4],[9.207808,41.852118,2086.1],[9.20786,41.85205,2087.8],[9.20787,41.851973,2089.2],[9.207818,41.851926,2089.5],[9.207839,41.851905,2090.2],[9.207845,41.851801,2093.8],[9.207874,41.851636,2097.6],[9.207861,41.851552,2097.8],[9.207773,41.851433,2097.2],[9.207702,41.851284,2100.3],[9.207673,41.851096,2104.6],[9.207675,41.851026,2107.7],[9.207697,41.850979,2109.3],[9.207651,41.85091,2111.1],[9.207639,41.850844,2112.5],[9.207594,41.850578,2117.8],[9.207531,41.850496,2118.8],[9.207539,41.850454,2120],[9.207585,41.850395,2123.5],[9.207536,41.850341,2123.8],[9.207555,41.850266,2125.6],[9.207497,41.85014,2126.9],[9.20745,41.850018,2127.8],[9.207412,41.849905,2129.4],[9.207374,41.849825,2130.1],[9.207326,41.849711,2130.2],[9.207106,41.849522,2126.9],[9.207018,41.84943,2125.3],[9.206904,41.849391,2122.8],[9.206838,41.849347,2120.2],[9.206779,41.849337,2119.1],[9.206724,41.849392,2117.5],[9.206681,41.849365,2116.3],[9.206639,41.849291,2115.3],[9.206525,41.849225,2112.6],[9.206426,41.849101,2108.6],[9.206391,41.849056,2106.1],[9.206319,41.849044,2103.5],[9.206312,41.848978,2101.5],[9.206202,41.848868,2096.6],[9.206047,41.84885,2090.1],[9.205835,41.84869,2086.3],[9.205712,41.848465,2084.5],[9.20553,41.848402,2082.3],[9.205428,41.848249,2082.7],[9.205293,41.848185,2077.6],[9.205225,41.84809,2076.8],[9.205151,41.848026,2074.3],[9.205094,41.847966,2073.1],[9.205037,41.847884,2070.8],[9.204949,41.847798,2068.4],[9.204725,41.84764,2064.8],[9.204568,41.847525,2060.5],[9.204396,41.847288,2052.7],[9.204266,41.847285,2047.1],[9.204189,41.847237,2045.2],[9.204077,41.847259,2039.7],[9.203961,41.847199,2034.4],[9.203879,41.847037,2031.1],[9.203776,41.846771,2028.4],[9.203727,41.846606,2029.2],[9.203784,41.8464,2029.5],[9.203736,41.846131,2028.2],[9.203659,41.846003,2026.8]]}}